STARLINK-2022           
1 47643U 21012Z   24257.49913658  .00046967  00000+0  31470-2 0  9993
2 47643  53.0549 325.6080 0001545 105.5663 254.5497 15.06447808198026
